IRIDIUM 171             
1 43929U 19002H   25178.94656155  .00000050  00000+0  10663-4 0  9997
2 43929  86.3997 141.9327 0002009  81.1764 278.9659 14.34217818338184
IRIDIUM 170             
1 43930U 19002J   25179.18935375  .00000569  00000+0  86372-4 0  9995
2 43930  86.6113 141.5834 0002721  79.6920 280.4603 14.72258258347176
IRIDIUM 167             
1 43931U 19002K   25178.94021933  .00000015  00000+0 -16574-5 0  9990
2 43931  86.3989 141.6877 0002160  74.4689 285.6745 14.34217599338181
IRIDIUM 181             
1 56726U 23068S   25179.11058022  .00000230  00000+0  62375-4 0  9999
2 56726  86.4520 204.6730 0001774  93.9290 266.2114 14.43310860111360
IRIDIUM 177             
1 56727U 23068T   25178.88735711  .00000397  00000+0  48662-4 0  9997
2 56727  86.1983 137.0515 0002394  84.7580 275.3914 14.80229368113959
IRIDIUM 174             
1 56728U 23068U   25179.17699581  .00000536  00000+0  81023-4 0  9998
2 56728  86.6120 141.6997 0003052  92.6454 267.5113 14.72256282113931
IRIDIUM 178             
1 56729U 23068V   25179.01166051  .00000349  00000+0  42466-4 0  9993
2 56729  86.6569 173.3166 0002710  91.3574 268.7958 14.80233258113979
IRIDIUM 179             
1 56730U 23068W   25178.73587641  .00000388  00000+0  47670-4 0  9990
2 56730  86.6810 181.3332 0002629  88.2357 271.9166 14.80234224113934
